NORAD_CAT_ID,OBJECT_NAME,OBJECT_TYPE,EPOCH,MEAN_MOTION,ECCENTRICITY,INCLINATION,RA_OF_ASC_NODE,ARG_OF_PERICENTER,MEAN_ANOMALY,BSTAR,MEAN_MOTION_DOT,MEAN_MOTION_DDOT,TLE_LINE0,TLE_LINE1,TLE_LINE2,SEMIMAJOR_AXIS,PERIOD,APOGEE,PERIGEE,DECAYED
52091.0,STARLINK-3713,PAYLOAD,2023-03-01 08:00:16,15.08792082,0.0001296,53.2171,6.7712,107.0342,253.0792,-0.0008679,-0.00014056,0.0,0 STARLINK-3713,1 52091U 22029D   23060.33352177 -.00014056  00000-0 -86790-3 0  9995,2 52091  53.2171   6.7712 0001296 107.0342 253.0792 15.08792082 53936,6918.027,95.441,540.788,538.995,0.0
52091.0,STARLINK-3713,PAYLOAD,2023-03-02 03:04:55,15.08817833,0.0001419,53.2175,3.2047,107.3078,252.807,0.0026593,0.00042263,0.0,0 STARLINK-3713,1 52091U 22029D   23061.12842197  .00042263  00000-0  26593-2 0  9992,2 52091  53.2175   3.2047 0001419 107.3078 252.8070 15.08817833 54051,6917.948,95.439,540.795,538.831,0.0
52091.0,STARLINK-3713,PAYLOAD,2023-03-02 06:15:41,15.08848948,0.0001543,53.2171,2.6076,104.3557,255.7606,0.0030886,0.00049223,0.0,0 STARLINK-3713,1 52091U 22029D   23061.26089857  .00049223  00000-0  30886-2 0  9996,2 52091  53.2171   2.6076 0001543 104.3557 255.7606 15.08848948 54079,6917.853,95.437,540.785,538.651,0.0
52091.0,STARLINK-3713,PAYLOAD,2023-03-03 04:31:04,15.08896439,0.0001332,53.2172,358.4454,96.5323,263.5821,0.0036909,0.00059036,0.0,0 STARLINK-3713,1 52091U 22029D   23062.18825078  .00059036  00000-0  36909-2 0  9996,2 52091  53.2172 358.4454 0001332  96.5323 263.5821 15.08896439 54211,6917.708,95.434,540.494,538.651,0.0
52091.0,STARLINK-3713,PAYLOAD,2023-03-03 18:49:32,15.08893845,0.0002252,53.2176,355.7686,93.0749,267.0501,0.0046757,0.0007503,0.0,0 STARLINK-3713,1 52091U 22029D   23062.78440697  .00075030  00000-0  46757-2 0  9996,2 52091  53.2176 355.7686 0002252  93.0749 267.0501 15.08893845 54300,6917.716,95.434,541.139,538.023,0.0
52091.0,STARLINK-3713,PAYLOAD,2023-03-04 01:11:04,15.08882686,0.0001418,53.2177,354.579,107.9675,252.1472,0.0015587,0.00024635,0.0,0 STARLINK-3713,1 52091U 22029D   23063.04935783  .00024635  00000-0  15587-2 0  9993,2 52091  53.2177 354.5790 0001418 107.9675 252.1472 15.08882686 54347,6917.75,95.435,540.596,538.634,0.0
52091.0,STARLINK-3713,PAYLOAD,2023-03-04 04:21:50,15.08906518,0.0001002,53.2173,353.983,100.8882,259.2223,0.0026214,0.00041755,0.0,0 STARLINK-3713,1 52091U 22029D   23063.18183161  .00041755  00000-0  26214-2 0  9994,2 52091  53.2173 353.9830 0001002 100.8882 259.2223 15.08906518 54367,6917.677,95.433,540.235,538.849,0.0
52091.0,STARLINK-3713,PAYLOAD,2023-03-04 18:40:19,15.08864472,0.0002007,53.2168,351.3093,84.7987,275.3234,0.0016085,0.00025421,0.0,0 STARLINK-3713,1 52091U 22029D   23063.77799815  .00025421  00000-0  16085-2 0  9995,2 52091  53.2168 351.3093 0002007  84.7987 275.3234 15.08864472 54459,6917.806,95.436,541.059,538.282,0.0
52091.0,STARLINK-3713,PAYLOAD,2023-03-04 21:51:05,15.08817863,0.000151,53.2167,350.7142,342.4069,17.687,0.00035773,5.407e-05,0.0,0 STARLINK-3713,1 52091U 22029D   23063.91048215  .00005407  00000-0  35773-3 0  9990,2 52091  53.2167 350.7142 0001510 342.4069  17.6870 15.08817863 54476,6917.948,95.439,540.858,538.768,0.0
52091.0,STARLINK-3713,PAYLOAD,2023-03-06 00:52:39,15.08865931,8.22e-05,53.2166,345.6594,85.587,274.5216,0.0018955,0.00030029,0.0,0 STARLINK-3713,1 52091U 22029D   23065.03656584  .00030029  00000-0  18955-2 0  9999,2 52091  53.2166 345.6594 0000822  85.5870 274.5216 15.08865931 54645,6917.801,95.436,540.235,539.097,0.0
52091.0,STARLINK-3713,PAYLOAD,2023-03-06 04:03:25,15.08905859,0.0001006,53.2172,345.0625,85.402,274.7087,0.0035232,0.00056334,0.0,0 STARLINK-3713,1 52091U 22029D   23065.16903956  .00056334  00000-0  35232-2 0  9995,2 52091  53.2172 345.0625 0001006  85.4020 274.7087 15.08905859 54666,6917.679,95.433,540.24,538.848,0.0
52091.0,STARLINK-3713,PAYLOAD,2023-03-07 03:54:03,15.09070792,8.51e-05,53.2164,340.6026,85.719,274.3899,0.0048777,0.00078705,0.0,0 STARLINK-3713,1 52091U 22029D   23066.16253867  .00078705  00000-0  48777-2 0  9999,2 52091  53.2164 340.6026 0000851  85.7190 274.3899 15.09070792 54815,6917.175,95.423,539.629,538.451,0.0
52091.0,STARLINK-3713,PAYLOAD,2023-03-08 03:44:32,15.09229456,7.71e-05,53.2161,336.1419,89.433,270.6751,0.0042574,0.00068863,0.0,0 STARLINK-3713,1 52091U 22029D   23067.15593053  .00068863  00000-0  42574-2 0  9996,2 52091  53.2161 336.1419 0000771  89.4330 270.6751 15.09229456 54961,6916.69,95.413,539.089,538.022,0.0
52091.0,STARLINK-3713,PAYLOAD,2023-03-09 00:24:12,15.09308389,8.2e-05,53.217,332.2723,92.1354,267.9732,0.0057737,0.00094029,0.0,0 STARLINK-3713,1 52091U 22029D   23068.01681483  .00094029  00000-0  57737-2 0  9997,2 52091  53.2170 332.2723 0000820  92.1354 267.9732 15.09308389 55094,6916.449,95.408,538.881,537.747,0.0
52091.0,STARLINK-3713,PAYLOAD,2023-03-09 22:00:00,15.08947043,0.0001028,53.2164,328.2351,112.6217,98.3368,-0.02065,-0.00315709,0.0,0 STARLINK-3713,1 52091U 22029D   23068.91667824 -.00315709  00000-0 -20650-1 0  9995,2 52091  53.2164 328.2351 0001028 112.6217  98.3368 15.08947043 55227,6917.553,95.431,540.129,538.707,0.0
52091.0,STARLINK-3713,PAYLOAD,2023-03-10 00:00:00,15.08918271,9.81e-05,53.2163,327.8613,112.3866,191.4843,-0.023625,-0.00358718,0.0,0 STARLINK-3713,1 52091U 22029D   23069.00001157 -.00358718  00000-0 -23625-1 0  9999,2 52091  53.2163 327.8613 0000981 112.3866 191.4843 15.08918271  1300,6917.641,95.433,540.185,538.828,0.0
52091.0,STARLINK-3713,PAYLOAD,2023-03-10 00:14:54,15.08855182,7.34e-05,53.2166,327.8138,95.8977,264.2099,0.00057468,8.874e-05,0.0,0 STARLINK-3713,1 52091U 22029D   23069.01035750  .00008874  00000-0  57468-3 0  9993,2 52091  53.2166 327.8138 0000734  95.8977 264.2099 15.08855182 55244,6917.834,95.437,540.207,539.191,0.0
52091.0,STARLINK-3713,PAYLOAD,2023-03-10 09:47:15,15.08793226,0.0001348,53.2163,326.0301,99.9895,260.1249,-0.0019204,-0.00030682,0.0,0 STARLINK-3713,1 52091U 22029D   23069.40782131 -.00030682  00000-0 -19204-2 0  9997,2 52091  53.2163 326.0301 0001348  99.9895 260.1249 15.08793226 55309,6918.023,95.441,540.821,538.956,0.0
52091.0,STARLINK-3713,PAYLOAD,2023-03-10 20:55:02,15.08660159,9.8e-05,53.2159,323.9476,136.9317,223.1752,-0.00022104,-3.786e-05,0.0,0 STARLINK-3713,1 52091U 22029D   23069.87156165 -.00003786  00000-0 -22104-3 0  9999,2 52091  53.2159 323.9476 0000980 136.9317 223.1752 15.08660159 55378,6918.43,95.449,540.973,539.617,0.0
52091.0,STARLINK-3713,PAYLOAD,2023-03-11 03:16:38,15.08664183,0.0001034,53.2159,322.7588,124.5919,235.517,-0.00079092,-0.00012792,0.0,0 STARLINK-3713,1 52091U 22029D   23070.13655302 -.00012792  00000-0 -79092-3 0  9992,2 52091  53.2159 322.7588 0001034 124.5919 235.5170 15.08664183 55418,6918.418,95.449,540.998,539.567,0.0
52091.0,STARLINK-3713,PAYLOAD,2023-03-11 04:52:01,15.08662203,0.0001034,53.2155,322.4615,130.4914,229.6169,-0.00082533,-0.00013335,0.0,0 STARLINK-3713,1 52091U 22029D   23070.20280075 -.00013335  00000-0 -82533-3 0  9999,2 52091  53.2155 322.4615 0001034 130.4914 229.6169 15.08662203 55427,6918.424,95.449,541.004,539.574,0.0
52091.0,STARLINK-3713,PAYLOAD,2023-03-12 01:32:13,15.08632942,0.0001405,53.2154,318.5961,172.6537,187.4476,4.8259e-05,4.76e-06,0.0,0 STARLINK-3713,1 52091U 22029D   23071.06404351  .00000476  00000-0  48259-4 0  9997,2 52091  53.2154 318.5961 0001405 172.6537 187.4476 15.08632942 55550,6918.513,95.451,541.35,539.406,0.0
52091.0,STARLINK-3713,PAYLOAD,2023-03-13 01:23:12,15.08639885,0.0001019,53.2157,314.1358,135.6103,224.4971,0.00034568,5.188e-05,0.0,0 STARLINK-3713,1 52091U 22029D   23072.05778163  .00005188  00000-0  34568-3 0  9994,2 52091  53.2157 314.1358 0001019 135.6103 224.4971 15.08639885 55706,6918.492,95.45,541.062,539.652,0.0
52091.0,STARLINK-3713,PAYLOAD,2023-03-13 22:03:22,15.0865087,9.59e-05,53.2154,310.2708,146.0193,214.0861,0.00034813,5.229e-05,0.0,0 STARLINK-3713,1 52091U 22029D   23072.91900978  .00005229  00000-0  34813-3 0  9999,2 52091  53.2154 310.2708 0000959 146.0193 214.0861 15.08650870 55830,6918.459,95.45,540.987,539.66,0.0
52091.0,STARLINK-3713,PAYLOAD,2023-03-14 01:14:10,15.08651423,8.78e-05,53.2155,309.6776,141.3617,218.7438,0.00033463,5.015e-05,0.0,0 STARLINK-3713,1 52091U 22029D   23073.05150711  .00005015  00000-0  33463-3 0  9990,2 52091  53.2155 309.6776 0000878 141.3617 218.7438 15.08651423 55855,6918.457,95.449,540.929,539.714,0.0
52091.0,STARLINK-3713,PAYLOAD,2023-03-14 21:54:19,15.08676428,7.44e-05,53.2153,305.8131,145.1992,214.9048,0.00055426,8.505e-05,0.0,0 STARLINK-3713,1 52091U 22029D   23073.91272102  .00008505  00000-0  55426-3 0  9994,2 52091  53.2153 305.8131 0000744 145.1992 214.9048 15.08676428 55987,6918.38,95.448,540.76,539.731,0.0
52091.0,STARLINK-3713,PAYLOAD,2023-03-15 01:05:06,15.08683833,9.27e-05,53.2157,305.2166,135.6587,224.4479,0.00068781,0.00010629,0.0,0 STARLINK-3713,1 52091U 22029D   23074.04521408  .00010629  00000-0  68781-3 0  9993,2 52091  53.2157 305.2166 0000927 135.6587 224.4479 15.08683833 56006,6918.358,95.447,540.864,539.581,0.0
52091.0,STARLINK-3713,PAYLOAD,2023-03-15 18:34:22,15.08796012,6.88e-05,53.2155,301.9481,97.5241,262.5829,0.0020943,0.0003316,0.0,0 STARLINK-3713,1 52091U 22029D   23074.77386840  .00033160  00000-0  20943-2 0  9994,2 52091  53.2155 301.9481 0000688  97.5241 262.5829 15.08796012 56112,6918.015,95.44,540.356,539.404,0.0
52091.0,STARLINK-3713,PAYLOAD,2023-03-15 21:45:08,15.08815733,0.0001111,53.2148,301.3516,156.7264,203.3778,0.0021864,0.00034657,0.0,0 STARLINK-3713,1 52091U 22029D   23074.90634640  .00034657  00000-0  21864-2 0  9998,2 52091  53.2148 301.3516 0001111 156.7264 203.3778 15.08815733 56132,6917.955,95.439,540.588,539.051,0.0
52091.0,STARLINK-3713,PAYLOAD,2023-03-16 00:55:54,15.08825755,0.0001124,53.2146,300.7562,158.8999,201.204,0.0020779,0.00032924,0.0,0 STARLINK-3713,1 52091U 22029D   23075.03882549  .00032924  00000-0  20779-2 0  9995,2 52091  53.2146 300.7562 0001124 158.8999 201.2040 15.08825755 56152,6917.924,95.438,540.567,539.011,0.0
